GLOBALSTAR M001         
1 25162U 98008A   25364.05317773 -.00000072  00000+0  19037-3 0  9996
2 25162  52.0023 123.1324 0000554 339.1463 192.0721 12.38224714267976
GLOBALSTAR M004         
1 25163U 98008B   25363.98166632 -.00000062  00000+0  22885-3 0  9998
2 25163  51.9975 176.8229 0003423  25.0940 146.7690 12.63411665286433
GLOBALSTAR M002         
1 25164U 98008C   25364.03149454 -.00000093  00000+0 -33306-3 0  9994
2 25164  52.0009 109.1542 0002348 134.6491 225.4520 11.61514548206827
GLOBALSTAR M003         
1 25165U 98008D   25364.14624343 -.00000194  00000+0 -11122-2 0  9995
2 25165  51.9922 345.7706 0008107 329.8566 110.6682 12.12038971256984
GLOBALSTAR M014         
1 25306U 98023A   25364.08649683 -.00000075  00000+0  44779-4 0  9999
2 25306  51.9861  28.1211 0000757   7.0157  22.5755 11.65483633214016
GLOBALSTAR M006         
1 25307U 98023B   25363.98173418 -.00000108  00000+0 -66735-3 0  9999
2 25307  51.9946  88.1770 0003817 109.5199  61.3591 11.58177829239511
GLOBALSTAR M015         
1 25308U 98023C   25364.01304137 -.00000037  00000+0  84126-3 0  9993
2 25308  51.9780 195.5480 0013759  66.6350 107.0792 11.48863209216583
GLOBALSTAR M008         
1 25309U 98023D   25364.17019733 -.00000076  00000+0  15569-3 0  9994
2 25309  51.9993 349.8443 0002433 227.1165 216.3247 12.36077571262080
